NORAD_CAT_ID,OBJECT_NAME,OBJECT_TYPE,EPOCH,MEAN_MOTION,ECCENTRICITY,INCLINATION,RA_OF_ASC_NODE,ARG_OF_PERICENTER,MEAN_ANOMALY,BSTAR,MEAN_MOTION_DOT,MEAN_MOTION_DDOT,TLE_LINE0,TLE_LINE1,TLE_LINE2,SEMIMAJOR_AXIS,PERIOD,APOGEE,PERIGEE,DECAYED
54793.0,STARLINK-5433,PAYLOAD,2023-02-22 00:00:00,15.65548617,0.0001088,53.216,338.6786,76.6652,348.6432,-0.0099205,-0.0092297,0.0,0 STARLINK-5433,1 54793U 22175AM  23053.00001157 -.00922970  00000-0 -99205-2 0  9990,2 54793  53.2160 338.6786 0001088  76.6652 348.6432 15.65548617  1309,6749.798,91.981,372.398,370.929,0.0
54793.0,STARLINK-5433,PAYLOAD,2023-02-22 06:00:00,15.65050653,0.0001157,53.2158,337.4568,65.933,328.9469,-0.0096935,-0.00887313,0.0,0 STARLINK-5433,1 54793U 22175AM  23053.25001157 -.00887313  00000-0 -96935-2 0  9995,2 54793  53.2158 337.4568 0001157  65.9330 328.9469 15.65050653 10198,6751.23,92.01,373.876,372.314,0.0
54793.0,STARLINK-5433,PAYLOAD,2023-02-22 14:00:01,15.64369026,0.0001119,53.2155,335.8261,79.5904,34.0527,-0.0094951,-0.00849158,0.0,0 STARLINK-5433,1 54793U 22175AM  23053.58334491 -.00849158  00000-0 -94951-2 0  9992,2 54793  53.2155 335.8261 0001119  79.5904  34.0527 15.64369026  1302,6753.191,92.05,375.812,374.3,0.0
54793.0,STARLINK-5433,PAYLOAD,2023-02-22 22:00:00,15.63770438,0.0001267,53.2155,334.1995,85.0215,106.5703,-0.010826,-0.00936691,0.0,0 STARLINK-5433,1 54793U 22175AM  23053.91667824 -.00936691  00000-0 -10826-1 0  9995,2 54793  53.2155 334.1995 0001267  85.0215 106.5703 15.63770438 10290,6754.914,92.085,377.635,375.923,0.0
54793.0,STARLINK-5433,PAYLOAD,2023-02-23 14:00:01,15.62423548,0.0001098,53.215,330.9485,92.5007,252.6909,-0.010408,-0.00860743,0.0,0 STARLINK-5433,1 54793U 22175AM  23054.58334491 -.00860743  00000-0 -10408-1 0  9990,2 54793  53.2150 330.9485 0001098  92.5007 252.6909 15.62423548  1306,6758.796,92.165,381.403,379.919,0.0
54793.0,STARLINK-5433,PAYLOAD,2023-02-23 22:00:00,15.61813552,0.0001118,53.2152,329.3266,84.3283,336.4684,-0.011641,-0.00932782,0.0,0 STARLINK-5433,1 54793U 22175AM  23054.91667824 -.00932782  00000-0 -11641-1 0  9999,2 54793  53.2152 329.3266 0001118  84.3283 336.4684 15.61813552  1303,6760.556,92.201,383.176,381.665,0.0
54793.0,STARLINK-5433,PAYLOAD,2023-02-24 06:00:00,15.61150743,0.0001291,53.215,327.7066,76.4338,59.1983,-0.011457,-0.00898007,0.0,0 STARLINK-5433,1 54793U 22175AM  23055.25001157 -.00898007  00000-0 -11457-1 0  9994,2 54793  53.2150 327.7066 0001291  76.4338  59.1983 15.61150743 10505,6762.469,92.24,385.207,383.461,0.0
54793.0,STARLINK-5433,PAYLOAD,2023-02-24 14:00:01,15.60474149,0.0001255,53.2151,326.0851,90.9438,118.7562,-0.011308,-0.00866307,0.0,0 STARLINK-5433,1 54793U 22175AM  23055.58334491 -.00866307  00000-0 -11308-1 0  9993,2 54793  53.2151 326.0851 0001255  90.9438 118.7562 15.60474149  1303,6764.423,92.28,387.137,385.44,0.0
54793.0,STARLINK-5433,PAYLOAD,2023-02-24 22:00:00,15.59855282,0.0001223,53.215,324.4683,89.2866,193.6742,-0.012419,-0.0092331,0.0,0 STARLINK-5433,1 54793U 22175AM  23055.91667824 -.00923310  00000-0 -12419-1 0  9991,2 54793  53.2150 324.4683 0001223  89.2866 193.6742 15.59855282 10613,6766.213,92.316,388.905,387.25,0.0
54793.0,STARLINK-5433,PAYLOAD,2023-02-25 14:00:01,15.58524441,0.0001097,53.2144,321.2361,91.1953,335.972,-0.012239,-0.00869725,0.0,0 STARLINK-5433,1 54793U 22175AM  23056.58334491 -.00869725  00000-0 -12239-1 0  9995,2 54793  53.2144 321.2361 0001097  91.1953 335.9720 15.58524441  1304,6770.064,92.395,392.672,391.186,0.0
54793.0,STARLINK-5433,PAYLOAD,2023-02-25 22:00:00,15.57905711,0.00012,53.2144,319.6242,86.7813,51.301,-0.013459,-0.00928343,0.0,0 STARLINK-5433,1 54793U 22175AM  23056.91667824 -.00928343  00000-0 -13459-1 0  9998,2 54793  53.2144 319.6242 0001200  86.7813  51.3010 15.57905711  1307,6771.856,92.432,394.534,392.909,0.0
54793.0,STARLINK-5433,PAYLOAD,2023-02-26 06:00:00,15.57262482,0.0001217,53.2141,318.0134,85.6489,122.5701,-0.013802,-0.00929072,0.0,0 STARLINK-5433,1 54793U 22175AM  23057.25001157 -.00929072  00000-0 -13802-1 0  9999,2 54793  53.2141 318.0134 0001217  85.6489 122.5701 15.57262482 10817,6773.721,92.47,396.41,394.761,0.0
54793.0,STARLINK-5433,PAYLOAD,2023-02-26 14:00:01,15.56572285,0.000106,53.2145,316.4013,103.4071,174.1876,-0.013153,-0.00868377,0.0,0 STARLINK-5433,1 54793U 22175AM  23057.58334491 -.00868377  00000-0 -13153-1 0  9994,2 54793  53.2145 316.4013 0001060 103.4071 174.1876 15.56572285  1305,6775.723,92.511,398.306,396.87,0.0
54793.0,STARLINK-5433,PAYLOAD,2023-02-27 00:00:00,15.55773094,0.0001024,53.2147,314.3927,81.9941,11.1971,-0.0141,-0.00900374,0.0,0 STARLINK-5433,1 54793U 22175AM  23058.00001157 -.00900374  00000-0 -14100-1 0  9999,2 54793  53.2147 314.3927 0001024  81.9941  11.1971 15.55773094  1300,6778.043,92.558,400.602,399.214,0.0
54793.0,STARLINK-5433,PAYLOAD,2023-02-27 14:00:01,15.54621686,9.76e-05,53.2148,311.5797,96.6367,24.3438,-0.014167,-0.00869732,0.0,0 STARLINK-5433,1 54793U 22175AM  23058.58334491 -.00869732  00000-0 -14167-1 0  9997,2 54793  53.2148 311.5797 0000976  96.6367  24.3438 15.54621686 11027,6781.39,92.627,403.916,402.593,0.0
54793.0,STARLINK-5433,PAYLOAD,2023-02-27 22:00:01,15.53994595,0.0001071,53.2148,309.9774,80.9338,106.3379,-0.015448,-0.00921513,0.0,0 STARLINK-5433,1 54793U 22175AM  23058.91668981 -.00921513  00000-0 -15448-1 0  9997,2 54793  53.2148 309.9774 0001071  80.9338 106.3379 15.53994595  1300,6783.214,92.664,405.805,404.352,0.0
54793.0,STARLINK-5433,PAYLOAD,2023-02-28 06:00:00,15.5337124,0.0001093,53.2143,308.3755,78.2562,174.3866,-0.016401,-0.00966756,0.0,0 STARLINK-5433,1 54793U 22175AM  23059.25001157 -.00966756  00000-0 -16401-1 0  9999,2 54793  53.2143 308.3755 0001093  78.2562 174.3866 15.53371240 11134,6785.028,92.702,407.635,406.152,0.0
54793.0,STARLINK-5433,PAYLOAD,2023-02-28 14:00:01,15.52670276,0.0001008,53.2143,306.7733,92.1697,225.1573,-0.015228,-0.00870321,0.0,0 STARLINK-5433,1 54793U 22175AM  23059.58334491 -.00870321  00000-0 -15228-1 0  9993,2 54793  53.2143 306.7733 0001008  92.1697 225.1573 15.52670276  1300,6787.07,92.743,409.619,408.251,0.0
54793.0,STARLINK-5433,PAYLOAD,2023-02-28 22:00:00,15.52042102,7.74e-05,53.2143,305.1759,68.6317,312.5722,-0.016503,-0.00929971,0.0,0 STARLINK-5433,1 54793U 22175AM  23059.91667824 -.00929971  00000-0 -16503-1 0  9992,2 54793  53.2143 305.1759 0000774  68.6317 312.5722 15.52042102  1305,6788.902,92.781,411.292,410.241,0.0
54793.0,STARLINK-5433,PAYLOAD,2023-03-01 22:00:00,15.49974262,0.0001436,53.2143,300.3884,74.6813,133.4748,-0.0025257,-0.00141685,0.0,0 STARLINK-5433,1 54793U 22175AM  23060.91667824 -.00141685  00000-0 -25257-2 0  9999,2 54793  53.2143 300.3884 0001436  74.6813 133.4748 15.49974262 11389,6794.938,92.905,417.779,415.828,0.0
54793.0,STARLINK-5433,PAYLOAD,2023-03-02 06:00:00,15.49905359,0.0001352,53.2143,298.7952,76.0217,193.0839,-0.00045866,-0.00026414,0.0,0 STARLINK-5433,1 54793U 22175AM  23061.25001157 -.00026414  00000-0 -45866-3 0  9999,2 54793  53.2143 298.7952 0001352  76.0217 193.0839 15.49905359 11447,6795.14,92.909,417.923,416.086,0.0
54793.0,STARLINK-5433,PAYLOAD,2023-03-02 20:00:01,15.49898363,0.000147,53.2147,296.007,84.6952,201.0213,-0.00053475,-0.00030697,0.0,0 STARLINK-5433,1 54793U 22175AM  23061.83334491 -.00030697  00000-0 -53475-3 0  9996,2 54793  53.2147 296.0070 0001470  84.6952 201.0213 15.49898363  1301,6795.16,92.909,418.024,416.026,0.0
54793.0,STARLINK-5433,PAYLOAD,2023-03-03 10:00:00,15.49890218,0.0001354,53.2145,293.2183,92.0652,210.2564,-0.00031181,-0.00018111,0.0,0 STARLINK-5433,1 54793U 22175AM  23062.41667824 -.00018111  00000-0 -31181-3 0  9997,2 54793  53.2145 293.2183 0001354  92.0652 210.2564 15.49890218 11622,6795.184,92.91,417.969,416.129,0.0
54793.0,STARLINK-5433,PAYLOAD,2023-03-03 14:00:01,15.49860866,0.0001386,53.2143,292.4213,98.7278,54.059,0.0006982,0.00039341,0.0,0 STARLINK-5433,1 54793U 22175AM  23062.58334491  .00039341  00000-0  69820-3 0  9993,2 54793  53.2143 292.4213 0001386  98.7278  54.0590 15.49860866  1300,6795.27,92.912,418.077,416.193,0.0
54793.0,STARLINK-5433,PAYLOAD,2023-03-03 22:00:00,15.49892048,0.0001362,53.214,290.8302,91.2387,122.4495,-0.00033104,-0.00019198,0.0,0 STARLINK-5433,1 54793U 22175AM  23062.91667824 -.00019198  00000-0 -33104-3 0  9995,2 54793  53.2140 290.8302 0001362  91.2387 122.4495 15.49892048  1302,6795.179,92.91,417.969,416.118,0.0
54793.0,STARLINK-5433,PAYLOAD,2023-03-04 06:00:00,15.49894505,0.0001164,53.2133,289.2366,95.5777,179.0194,-0.00017294,-0.00010257,0.0,0 STARLINK-5433,1 54793U 22175AM  23063.25001157 -.00010257  00000-0 -17294-3 0  9993,2 54793  53.2133 289.2366 0001164  95.5777 179.0194 15.49894505 11750,6795.171,92.91,417.827,416.245,0.0
54793.0,STARLINK-5433,PAYLOAD,2023-03-04 14:00:01,15.4987245,0.000124,53.2135,287.6423,108.9535,226.5648,0.00063749,0.00035879,0.0,0 STARLINK-5433,1 54793U 22175AM  23063.58334491  .00035879  00000-0  63749-3 0  9990,2 54793  53.2135 287.6423 0001240 108.9535 226.5648 15.49872450  1301,6795.236,92.911,417.943,416.258,0.0
54793.0,STARLINK-5433,PAYLOAD,2023-03-04 22:00:00,15.49902777,0.0001148,53.2133,286.0511,95.7678,300.6615,-0.00081224,-0.00046307,0.0,0 STARLINK-5433,1 54793U 22175AM  23063.91667824 -.00046307  00000-0 -81224-3 0  9994,2 54793  53.2133 286.0511 0001148  95.7678 300.6615 15.49902777  1302,6795.147,92.909,417.792,416.232,0.0
54793.0,STARLINK-5433,PAYLOAD,2023-03-05 00:56:21,15.49899611,0.0001076,53.2155,285.4631,93.8069,266.3064,-3.1448e-05,-2.236e-05,0.0,0 STARLINK-5433,1 54793U 22175AM  23064.03913725 -.00002236  00000-0 -31448-4 0  9999,2 54793  53.2155 285.4631 0001076  93.8069 266.3064 15.49899611 11876,6795.156,92.909,417.753,416.29,0.0
54793.0,STARLINK-5433,PAYLOAD,2023-03-05 21:03:26,15.49944994,0.0001099,53.2157,281.4569,90.1469,269.9667,0.000161,8.716e-05,0.0,0 STARLINK-5433,1 54793U 22175AM  23064.87738518  .00008716  00000-0  16100-3 0  9990,2 54793  53.2157 281.4569 0001099  90.1469 269.9667 15.49944994 12002,6795.024,92.907,417.636,416.142,0.0
